{
  "type": "FeatureCollection",
  "features": [
    {
      "type": "Feature",
      "properties": {
        "nombre": "Punto de ejemplo",
        "tipo": "ubicacion"
      },
      "geometry": {
        "type": "Point",
        "coordinates": [
          -76.6132,
          2.4448
        ]
      }
    },
    {
      "type": "Feature",
      "properties": {
        "nombre": "Zona de ejemplo",
        "tipo": "poligono"
      },
      "geometry": {
        "type": "Polygon",
        "coordinates": [
          [
            [-76.6200, 2.4500],
            [-76.6100, 2.4500],
            [-76.6100, 2.4400],
            [-76.6200, 2.4400],
            [-76.6200, 2.4500]
          ]
        ]
      }
    },
    {
      "type": "Feature",
      "properties": {
        "nombre": "Linea de ejemplo",
        "tipo": "linea"
      },
      "geometry": {
        "type": "LineString",
        "coordinates": [
          [-76.6200, 2.4400],
          [-76.6150, 2.4450],
          [-76.6100, 2.4500]
        ]
      }
    }
  ]
}